[{"OBJECT_NAME":"PRAETORIAN SDA_617","OBJECT_ID":"2025-203R","EPOCH":"2026-03-09T13:00:56.284704","MEAN_MOTION":13.83191555,"ECCENTRICITY":0.00087532,"INCLINATION":81.3005,"RA_OF_ASC_NODE":103.0292,"ARG_OF_PERICENTER":101.6074,"MEAN_ANOMALY":258.6065,"EPHEMERIS_TYPE":0,"CLASSIFICATION_TYPE":"U","NORAD_CAT_ID":65580,"ELEMENT_SET_NO":999,"REV_AT_EPOCH":2491,"BSTAR":5.9995099e-5,"MEAN_MOTION_DOT":7.8e-7,"MEAN_MOTION_DDOT":0},{"OBJECT_NAME":"SL-8 R\/B","OBJECT_ID":"1972-035B","EPOCH":"2026-03-09T21:48:25.361568","MEAN_MOTION":13.79149122,"ECCENTRICITY":0.00211407,"INCLINATION":74.0252,"RA_OF_ASC_NODE":346.5521,"ARG_OF_PERICENTER":331.2414,"MEAN_ANOMALY":100.1999,"EPHEMERIS_TYPE":0,"CLASSIFICATION_TYPE":"U","NORAD_CAT_ID":6020,"ELEMENT_SET_NO":999,"REV_AT_EPOCH":70830,"BSTAR":7.6372394e-5,"MEAN_MOTION_DOT":5.5e-7,"MEAN_MOTION_DDOT":0}]
